GLOBALSTAR M068         
1 32266U 07048D   25361.93117226 -.00000070  00000+0  18707-3 0  9999
2 32266  51.9897  71.6532 0001334 176.5595 354.6263 12.62836166842030
GLOBALSTAR M079         
1 37188U 10054A   25361.94444596 -.00000082  00000+0  12325-3 0  9995
2 37188  52.0033 269.9601 0000911  43.4238  37.0895 12.62269155700929
GLOBALSTAR M074         
1 37189U 10054B   25362.14399779 -.00000083  00000+0  11546-3 0  9996
2 37189  52.0020 268.6453 0000960  65.4159  81.9892 12.62264569701556
GLOBALSTAR M076         
1 37190U 10054C   25362.17435693 -.00000088  00000+0  86169-4 0  9996
2 37190  52.0033 268.7426 0001073  58.4425 106.0524 12.62268545701275
GLOBALSTAR M077         
1 37191U 10054D   25362.14940149 -.00000067  00000+0  19756-3 0  9995
2 37191  51.9966 253.7410 0001496  50.7350 118.2506 11.68176682701154
GLOBALSTAR M075         
1 37192U 10054E   25358.21427079 -.00000088  00000+0  85706-4 0  9993
2 37192  52.0022 322.9423 0000480 109.7567 352.3949 12.62261317699849
GLOBALSTAR M073         
1 37193U 10054F   25362.02562932 -.00000081  00000+0  12600-3 0  9991
2 37193  52.0038 225.3127 0001139  65.0778  82.6529 12.62268468702312
GLOBALSTAR M083         
1 37739U 11033A   25361.88024148 -.00000079  00000+0  13776-3 0  9992
2 37739  51.9831 174.2159 0001042  81.7315  66.9459 12.62266126671310
GLOBALSTAR M088         
1 37740U 11033B   25361.61611312 -.00000093  00000+0  57837-4 0  9993
2 37740  52.0223  81.0318 0000699 128.8617  18.3916 12.62271102666825
GLOBALSTAR M091         
1 37741U 11033C   25362.07604713 -.00000103  00000+0  22764-5 0  9996
2 37741  52.0012  42.8523 0000312 141.6063 235.8435 12.62268280667674
GLOBALSTAR M085         
1 37742U 11033D   25361.37854402 -.00000098  00000+0  33003-4 0  9991
2 37742  52.0146 356.1170 0000140  14.3249 132.6649 12.62267470668091
GLOBALSTAR M081         
1 37743U 11033E   25351.59018587 -.00000087  00000+0  92331-4 0  9998
2 37743  51.9980  28.5496 0000222  94.7932  71.3857 12.62270971667009
GLOBALSTAR M089         
1 37744U 11033F   25362.06314722 -.00000086  00000+0  98602-4 0  9999
2 37744  51.9952 310.8555 0000750  71.0935   9.3184 12.62262808669173
GLOBALSTAR M084         
1 38040U 11080A   25361.74502729 -.00000083  00000+0  11388-3 0  9993
2 38040  51.9982 179.2142 0001380  92.2976 280.9612 12.62266937647115
GLOBALSTAR M080         
1 38041U 11080B   25361.79580523 -.00000085  00000+0  10618-3 0  9994
2 38041  52.0029 180.7186 0000685 106.9541 267.0330 12.62265242647248
GLOBALSTAR M082         
1 38042U 11080C   25361.65387573 -.00000093  00000+0  57496-4 0  9995
2 38042  52.0057 136.6322 0000698 120.0480 258.3681 12.62266362647937
GLOBALSTAR M092         
1 38043U 11080D   25361.94315603 -.00000088  00000+0  87511-4 0  9998
2 38043  52.0063 226.1417 0001009  77.2707 296.0149 12.62268833646423
GLOBALSTAR M090         
1 38044U 11080E   25361.69990846 -.00000095  00000+0  51533-4 0  9992
2 38044  52.0108 130.3933 0000807 101.6803   4.8801 12.62265504648050
GLOBALSTAR M086         
1 38045U 11080F   25361.56022425 -.00000088  00000+0  90571-4 0  9995
2 38045  51.9886 131.0278 0001500  60.5284  21.5307 12.62281470647987
GLOBALSTAR M097         
1 39072U 13005A   25361.80801693 -.00000105  00000+0 -55203-5 0  9999
2 39072  52.0062  45.0287 0000329  93.7395 266.3509 12.62267653595262
GLOBALSTAR M093         
1 39073U 13005B   25362.09862905 -.00000102  00000+0  77935-5 0  9997
2 39073  52.0120  37.4267 0000210  49.8823 310.2062 12.62271240595257
GLOBALSTAR M094         
1 39074U 13005C   25361.22751223 -.00000095  00000+0  46601-4 0  9998
2 39074  51.9979 314.3671 0000596  29.8691 330.2210 12.62265433596752
GLOBALSTAR M096         
1 39075U 13005D   25362.03236976 -.00000100  00000+0  20166-4 0  9997
2 39075  52.0091   0.5801 0000172  21.9342 338.1532 12.62269549595772
GLOBALSTAR M078         
1 39076U 13005E   25362.16470837 -.00000206  00000+0 -56835-3 0  9997
2 39076  51.9883  84.4256 0000641 205.6928 154.3907 12.62270843594410
GLOBALSTAR M095         
1 39077U 13005F   25362.19101287 -.00000095  00000+0  47568-4 0  9990
2 39077  52.0089  81.7067 0000250 146.6880 213.4002 12.62267350594274
GLOBALSTAR M087         
1 52888U 22064A   25361.88736642 -.00000091  00000+0  72504-4 0  9998
2 52888  51.9972 223.9682 0000919  64.3855 295.7107 12.62261986169503
